{
    "links": {
        "self": "http://www.neowsapp.com/rest/v1/neo/3888745?api_key=iIulBulltgU6a56xZRHN4H3l9WmuAYTsLGpBGhQ2"
    },
    "id": "3888745",
    "neo_reference_id": "3888745",
    "name": "(2019 UE12)",
    "designation": "2019 UE12",
    "nasa_jpl_url": "http://ssd.jpl.nasa.gov/sbdb.cgi?sstr=3888745",
    "absolute_magnitude_h": 26.4,
    "estimated_diameter": {
        "kilometers": {
            "estimated_diameter_min": 0.0139493823,
            "estimated_diameter_max": 0.0311917671
        },
        "meters": {
            "estimated_diameter_min": 13.9493822934,
            "estimated_diameter_max": 31.1917670523
        },
        "miles": {
            "estimated_diameter_min": 0.0086677416,
            "estimated_diameter_max": 0.0193816595
        },
        "feet": {
            "estimated_diameter_min": 45.7656914036,
            "estimated_diameter_max": 102.3351970157
        }
    },
    "is_potentially_hazardous_asteroid": false,
    "close_approach_data": [
        {
            "close_approach_date": "2019-10-21",
            "close_approach_date_full": "2019-Oct-21 10:17",
            "epoch_date_close_approach": 1571653020000,
            "relative_velocity": {
                "kilometers_per_second": "6.8739653219",
                "kilometers_per_hour": "24746.2751589099",
                "miles_per_hour": "15376.3730286016"
            },
            "miss_distance": {
                "astronomical": "0.0454803112",
                "lunar": "17.6918410568",
                "kilometers": "6803757.682457144",
                "miles": "4227658.9847268272"
            },
            "orbiting_body": "Earth"
        }
    ],
    "orbital_data": {
        "orbit_id": "2",
        "orbit_determination_date": "2020-09-11 07:45:30",
        "first_observation_date": "2019-10-24",
        "last_observation_date": "2019-11-08",
        "data_arc_in_days": 15,
        "observations_used": 20,
        "orbit_uncertainty": "7",
        "minimum_orbit_intersection": ".0396342",
        "jupiter_tisserand_invariant": "3.358",
        "epoch_osculation": "2459000.5",
        "eccentricity": ".5531764422121646",
        "semi_major_axis": "2.315733657871039",
        "inclination": "1.424611861068807",
        "ascending_node_longitude": "170.6474740481323",
        "orbital_period": "1287.156454284384",
        "perihelion_distance": "1.034724351898976",
        "perihelion_argument": "211.1242087299581",
        "aphelion_distance": "3.596742963843103",
        "perihelion_time": "2458773.751744234114",
        "mean_anomaly": "63.41837606765685",
        "mean_motion": ".2796862796295792",
        "equinox": "J2000",
        "orbit_class": {
            "orbit_class_type": "AMO",
            "orbit_class_description": "Near-Earth asteroid orbits similar to that of 1221 Amor",
            "orbit_class_range": "1.017 AU < q (perihelion) < 1.3 AU"
        }
    },
    "is_sentry_object": false
}